GLOBALSTAR M069         
1 31573U 07020C   26189.61842531 -.00000070  00000+0  20753-3 0  9991
2 31573  52.0005 191.4672 0001807 195.6537 326.1281 12.23472094881425
GLOBALSTAR M072         
1 31574U 07020D   26190.05230096 -.00000087  00000+0 -38939-4 0  9994
2 31574  51.9942  42.0349 0001618  23.4972 144.0411 11.91658588877589
GLOBALSTAR M066         
1 32265U 07048C   26189.75552253 -.00000046  00000+0  40750-3 0  9996
2 32265  51.9610 355.9966 0005661  89.0906 284.5371 12.30388925862888
GLOBALSTAR M079         
1 37188U 10054A   26190.01001198 -.00000109  00000+0 -27892-4 0  9998
2 37188  52.0048  42.2384 0001088  67.3266  79.9879 12.62266411725305
GLOBALSTAR M074         
1 37189U 10054B   26190.04004038 -.00000100  00000+0  22827-4 0  9991
2 37189  52.0028  41.4089 0000863  84.7637  79.1419 12.62262017725919
GLOBALSTAR M076         
1 37190U 10054C   26189.89449797 -.00000100  00000+0  22614-4 0  9993
2 37190  52.0040  42.0572 0001079  80.1240  21.9961 12.62262144725614
GLOBALSTAR M077         
1 37191U 10054D   26190.23119853 -.00000088  00000+0 -17914-3 0  9993
2 37191  51.9948 123.3439 0002370 213.9535 294.8688 11.67547826723716
GLOBALSTAR M075         
1 37192U 10054E   26190.07414095 -.00000104  00000+0  12566-5 0  9990
2 37192  51.9948  83.5519 0000649  55.2846  83.9408 12.62267739724707
GLOBALSTAR M073         
1 37193U 10054F   26189.72991778 -.00000100  00000+0  21064-4 0  9997
2 37193  52.0077 358.7168 0001103  87.3990 285.2259 12.62266861726654
GLOBALSTAR M083         
1 37739U 11033A   26190.29948054 -.00000094  00000+0  52435-4 0  9992
2 37739  51.9875 305.1825 0000863 100.0979 283.2794 12.62263929695741
GLOBALSTAR M088         
1 37740U 11033B   26190.11773731 -.00000083  00000+0  11520-3 0  9990
2 37740  52.0185 212.2167 0000184 158.2246 237.5048 12.62269329691261
GLOBALSTAR M091         
1 37741U 11033C   26190.31160525 -.00000086  00000+0  99479-4 0  9997
2 37741  51.9971 174.5583 0000278   9.1783 128.6355 12.62264192692073
GLOBALSTAR M085         
1 37742U 11033D   26190.22141229 -.00000097  00000+0  40401-4 0  9991
2 37742  52.0119 126.1440 0000647  29.3265 118.4700 12.62264299692578
GLOBALSTAR M081         
1 37743U 11033E   26190.24795593 -.00000101  00000+0  16092-4 0  9998
2 37743  51.9949 128.4741 0000544  47.8102 100.4663 12.62265372692727
GLOBALSTAR M089         
1 37744U 11033F   26190.13229041 -.00000108  00000+0 -24763-4 0  9999
2 37744  51.9932  82.9815 0000650  83.9853  79.4840 12.62267547693558
GLOBALSTAR M084         
1 38040U 11080A   26190.26978036 -.00000095  00000+0  48774-4 0  9992
2 38040  52.0030 310.0564 0000963 120.8049 247.6555 12.62267856671551
GLOBALSTAR M080         
1 38041U 11080B   26189.37568341 -.00000101  00000+0  15974-4 0  9991
2 38041  51.9971 314.4858 0000382 313.7000  79.8485 12.62259863671560
GLOBALSTAR M082         
1 38042U 11080C   26190.17927868 -.00000091  00000+0  71310-4 0  9999
2 38042  52.0070 267.5618 0000271 108.2360 268.5161 12.62264010672376
GLOBALSTAR M092         
1 38043U 11080D   26189.94758727 -.00000089  00000+0  82883-4 0  9993
2 38043  52.0102 358.6633 0000839  94.0750  68.6077 12.62267573670793
GLOBALSTAR M090         
1 38044U 11080E   26190.21007394 -.00000085  00000+0  10212-3 0  9995
2 38044  52.0117 261.4313 0000465 107.2804 288.1881 12.62253015672495
GLOBALSTAR M086         
1 38045U 11080F   26190.23088392 -.00000093  00000+0  57711-4 0  9990
2 38045  51.9889 261.2606 0001626 102.8875 290.4344 12.62287691672444
GLOBALSTAR M097         
1 39072U 13005A   26189.93852720 -.00000086  00000+0  99019-4 0  9998
2 39072  52.0019 177.1224 0000267  35.6636 324.4248 12.62271402619659
GLOBALSTAR M093         
1 39073U 13005B   26190.30765442 -.00000083  00000+0  11475-3 0  9992
2 39073  52.0081 169.3537 0000511  36.7358 323.3544 12.62266293619653
GLOBALSTAR M094         
1 39074U 13005C   26189.91157715 -.00000126  00000+0 -12353-3 0  9991
2 39074  51.9959  84.6549 0000929  53.9356 306.1597 12.62268281621211
GLOBALSTAR M096         
1 39075U 13005D   26189.21245548 -.00000093  00000+0  61011-4 0  9995
2 39075  52.0058 135.6005 0000576  28.4831 331.6068 12.62265644620047
GLOBALSTAR M078         
1 39076U 13005E   26190.05658766 -.00000086  00000+0  99526-4 0  9994
2 39076  51.9844 217.0128 0000692 319.0825  40.9990 12.62260056618774
GLOBALSTAR M095         
1 39077U 13005F   26190.08328142 -.00000083  00000+0  11598-3 0  9999
2 39077  52.0054 214.5663 0000278   3.0136 357.0733 12.62264032618631
GLOBALSTAR M087         
1 52888U 22064A   26189.77968433 -.00000102  00000+0  10892-4 0  9995
2 52888  52.0014 356.7155 0000948  76.4708 283.6265 12.62269287193864
